{
  "type": "FeatureCollection",
  "features": [
    {
      "type": "Feature",
      "properties": {
        "norad_id": 38867,
        "name": "INTELSAT 23 (IS-23)",
        "group": "intelsat",
        "lat": -0.026295667504450643,
        "lon": -45.62960860371195,
        "alt_km": 35787.38357416619,
        "timestamp": "2025-12-04T19:33:59.298905+00:00",
        "meta_object_name": "INTELSAT 23 (IS-23)",
        "meta_object_id": "2012-057A",
        "meta_epoch": "2025-12-04T06:37:34.480128",
        "meta_mean_motion": 1.00269622,
        "meta_eccentricity": 0.00017544,
        "meta_inclination": 0.0473,
        "meta_ra_of_asc_node": 109.2026,
        "meta_arg_of_pericenter": 109.9852,
        "meta_mean_anomaly": 260.5518,
        "meta_ephemeris_type": 0,
        "meta_classification_type": "U",
        "meta_norad_cat_id": 38867,
        "meta_element_set_no": 999,
        "meta_rev_at_epoch": 4800,
        "meta_bstar": 0,
        "meta_mean_motion_dot": -2.69e-06,
        "meta_mean_motion_ddot": 0,
        "tle_line1": "1 38867U 12057A   25338.27609352 -.00000269  00000+0  00000+0 0  9998",
        "tle_line2": "2 38867   0.0473 109.2026 0001754 109.9852 260.5518  1.00269622 48006"
      },
      "geometry": {
        "type": "Point",
        "coordinates": [
          -45.62960860371195,
          -0.026295667504450643
        ]
      }
    },
    {
      "type": "Feature",
      "properties": {
        "norad_id": 39360,
        "name": "FM-6",
        "group": "intelsat",
        "lat": 0.006652345110125742,
        "lon": -108.77300950318602,
        "alt_km": 35783.78172762681,
        "timestamp": "2025-12-04T19:33:59.298916+00:00",
        "meta_object_name": "FM-6",
        "meta_object_id": "2013-058A",
        "meta_epoch": "2025-12-04T01:11:19.911264",
        "meta_mean_motion": 1.00270187,
        "meta_eccentricity": 0.00028288,
        "meta_inclination": 0.0111,
        "meta_ra_of_asc_node": 103.4812,
        "meta_arg_of_pericenter": 70.8052,
        "meta_mean_anomaly": 160.5143,
        "meta_ephemeris_type": 0,
        "meta_classification_type": "U",
        "meta_norad_cat_id": 39360,
        "meta_element_set_no": 999,
        "meta_rev_at_epoch": 4411,
        "meta_bstar": 0,
        "meta_mean_motion_dot": 0,
        "meta_mean_motion_ddot": 0,
        "tle_line1": "1 39360U 13058A   25338.04953601  .00000000  00000+0  00000+0 0  9995",
        "tle_line2": "2 39360   0.0111 103.4812 0002828  70.8052 160.5143  1.00270187 44113"
      },
      "geometry": {
        "type": "Point",
        "coordinates": [
          -108.77300950318602,
          0.006652345110125742
        ]
      }
    },
    {
      "type": "Feature",
      "properties": {
        "norad_id": 40271,
        "name": "INTELSAT 30 (IS-30)",
        "group": "intelsat",
        "lat": -0.03315577392967019,
        "lon": -87.70260362197085,
        "alt_km": 35791.453113749034,
        "timestamp": "2025-12-04T19:33:59.298926+00:00",
        "meta_object_name": "INTELSAT 30 (IS-30)",
        "meta_object_id": "2014-062A",
        "meta_epoch": "2025-12-03T23:34:36.676416",
        "meta_mean_motion": 1.00269712,
        "meta_eccentricity": 0.00011619,
        "meta_inclination": 0.0158,
        "meta_ra_of_asc_node": 14.764,
        "meta_arg_of_pericenter": 62.5851,
        "meta_mean_anomaly": 254.3126,
        "meta_ephemeris_type": 0,
        "meta_classification_type": "U",
        "meta_norad_cat_id": 40271,
        "meta_element_set_no": 999,
        "meta_rev_at_epoch": 482,
        "meta_bstar": 0,
        "meta_mean_motion_dot": -1.34e-06,
        "meta_mean_motion_ddot": 0,
        "tle_line1": "1 40271U 14062A   25337.98236894 -.00000134  00000+0  00000+0 0  9993",
        "tle_line2": "2 40271   0.0158  14.7640 0001161  62.5851 254.3126  1.00269712  4823"
      },
      "geometry": {
        "type": "Point",
        "coordinates": [
          -87.70260362197085,
          -0.03315577392967019
        ]
      }
    },
    {
      "type": "Feature",
      "properties": {
        "norad_id": 40333,
        "name": "DIRECTV 14",
        "group": "intelsat",
        "lat": -0.03755840664927279,
        "lon": -91.85424016817242,
        "alt_km": 35785.06699372105,
        "timestamp": "2025-12-04T19:33:59.298937+00:00",
        "meta_object_name": "DIRECTV 14",
        "meta_object_id": "2014-078B",
        "meta_epoch": "2025-12-04T06:24:20.746656",
        "meta_mean_motion": 1.00271093,
        "meta_eccentricity": 4.579e-05,
        "meta_inclination": 0.0181,
        "meta_ra_of_asc_node": 327.1654,
        "meta_arg_of_pericenter": 250.1659,
        "meta_mean_anomaly": 212.8806,
        "meta_ephemeris_type": 0,
        "meta_classification_type": "U",
        "meta_norad_cat_id": 40333,
        "meta_element_set_no": 999,
        "meta_rev_at_epoch": 4008,
        "meta_bstar": 0,
        "meta_mean_motion_dot": -1.1e-06,
        "meta_mean_motion_ddot": 0,
        "tle_line1": "1 40333U 14078B   25338.26690679 -.00000110  00000+0  00000+0 0  9990",
        "tle_line2": "2 40333   0.0181 327.1654 0000457 250.1659 212.8806  1.00271093 40089"
      },
      "geometry": {
        "type": "Point",
        "coordinates": [
          -91.85424016817242,
          -0.03755840664927279
        ]
      }
    },
    {
      "type": "Feature",
      "properties": {
        "norad_id": 40663,
        "name": "DIRECTV 15",
        "group": "intelsat",
        "lat": -0.02283916682590763,
        "lon": -95.5174105478871,
        "alt_km": 35785.567459942045,
        "timestamp": "2025-12-04T19:33:59.298947+00:00",
        "meta_object_name": "DIRECTV 15",
        "meta_object_id": "2015-026A",
        "meta_epoch": "2025-12-04T06:23:20.842944",
        "meta_mean_motion": 1.00268509,
        "meta_eccentricity": 3.632e-05,
        "meta_inclination": 0.0432,
        "meta_ra_of_asc_node": 91.3921,
        "meta_arg_of_pericenter": 193.1347,
        "meta_mean_anomaly": 141.782,
        "meta_ephemeris_type": 0,
        "meta_classification_type": "U",
        "meta_norad_cat_id": 40663,
        "meta_element_set_no": 999,
        "meta_rev_at_epoch": 3850,
        "meta_bstar": 0,
        "meta_mean_motion_dot": -8.6e-07,
        "meta_mean_motion_ddot": 0,
        "tle_line1": "1 40663U 15026A   25338.26621346 -.00000086  00000+0  00000+0 0  9997",
        "tle_line2": "2 40663   0.0432  91.3921 0000363 193.1347 141.7820  1.00268509 38505"
      },
      "geometry": {
        "type": "Point",
        "coordinates": [
          -95.5174105478871,
          -0.02283916682590763
        ]
      }
    },
    {
      "type": "Feature",
      "properties": {
        "norad_id": 40664,
        "name": "SKY MEXICO-1",
        "group": "intelsat",
        "lat": -0.03119704488878519,
        "lon": -71.39158301756297,
        "alt_km": 35775.40760234387,
        "timestamp": "2025-12-04T19:33:59.298958+00:00",
        "meta_object_name": "SKY MEXICO-1",
        "meta_object_id": "2015-026B",
        "meta_epoch": "2025-12-04T06:30:12.684960",
        "meta_mean_motion": 1.00270287,
        "meta_eccentricity": 0.00028185,
        "meta_inclination": 0.0165,
        "meta_ra_of_asc_node": 346.5153,
        "meta_arg_of_pericenter": 281.2845,
        "meta_mean_anomaly": 184.3393,
        "meta_ephemeris_type": 0,
        "meta_classification_type": "U",
        "meta_norad_cat_id": 40664,
        "meta_element_set_no": 999,
        "meta_rev_at_epoch": 3850,
        "meta_bstar": 0,
        "meta_mean_motion_dot": -2.19e-06,
        "meta_mean_motion_ddot": 0,
        "tle_line1": "1 40664U 15026B   25338.27098015 -.00000219  00000+0  00000+0 0  9998",
        "tle_line2": "2 40664   0.0165 346.5153 0002818 281.2845 184.3393  1.00270287 38504"
      },
      "geometry": {
        "type": "Point",
        "coordinates": [
          -71.39158301756297,
          -0.03119704488878519
        ]
      }
    },
    {
      "type": "Feature",
      "properties": {
        "norad_id": 40874,
        "name": "INTELSAT 34 (IS-34)",
        "group": "intelsat",
        "lat": -0.00633462109759913,
        "lon": -48.141631472794025,
        "alt_km": 35788.14378157172,
        "timestamp": "2025-12-04T19:33:59.298968+00:00",
        "meta_object_name": "INTELSAT 34 (IS-34)",
        "meta_object_id": "2015-039A",
        "meta_epoch": "2025-12-04T06:36:49.552128",
        "meta_mean_motion": 1.00269893,
        "meta_eccentricity": 4.772e-05,
        "meta_inclination": 0.0125,
        "meta_ra_of_asc_node": 319.1368,
        "meta_arg_of_pericenter": 215.3754,
        "meta_mean_anomaly": 302.5437,
        "meta_ephemeris_type": 0,
        "meta_classification_type": "U",
        "meta_norad_cat_id": 40874,
        "meta_element_set_no": 999,
        "meta_rev_at_epoch": 3767,
        "meta_bstar": 0,
        "meta_mean_motion_dot": -2.7e-06,
        "meta_mean_motion_ddot": 0,
        "tle_line1": "1 40874U 15039A   25338.27557352 -.00000270  00000+0  00000+0 0  9996",
        "tle_line2": "2 40874   0.0125 319.1368 0000477 215.3754 302.5437  1.00269893 37674"
      },
      "geometry": {
        "type": "Point",
        "coordinates": [
          -48.141631472794025,
          -0.00633462109759913
        ]
      }
    }
  ]
}